NORAD_CAT_ID,OBJECT_NAME,OBJECT_TYPE,EPOCH,MEAN_MOTION,ECCENTRICITY,INCLINATION,RA_OF_ASC_NODE,ARG_OF_PERICENTER,MEAN_ANOMALY,BSTAR,MEAN_MOTION_DOT,MEAN_MOTION_DDOT,TLE_LINE0,TLE_LINE1,TLE_LINE2,SEMIMAJOR_AXIS,PERIOD,APOGEE,PERIGEE,DECAYED
53171.0,STARLINK-4052,PAYLOAD,2024-06-22 22:00:01,15.08847139,0.0001384,53.218,58.5943,83.9952,276.1198,4.0957e-05,3.64e-06,0.0,0 STARLINK-4052,1 53171U 22083AR  24174.91668193  .00000364  00000-0  40957-4 0  9995,2 53171  53.2180  58.5943 0001384  83.9952 276.1198 15.08847139107451,6917.859,95.437,540.681,538.766,0.0
53171.0,STARLINK-4052,PAYLOAD,2024-06-23 15:29:16,15.08839144,0.0001643,53.219,55.3264,106.0522,254.0651,0.00010976,1.459e-05,0.0,0 STARLINK-4052,1 53171U 22083AR  24175.64532414  .00001459  00000-0  10976-3 0  9995,2 53171  53.2190  55.3264 0001643 106.0522 254.0651 15.08839144107569,6917.883,95.438,540.885,538.611,0.0
53171.0,STARLINK-4052,PAYLOAD,2024-06-23 21:50:48,15.08841497,0.0001621,53.2191,54.1367,106.1612,253.9558,8.8878e-05,1.127e-05,0.0,0 STARLINK-4052,1 53171U 22083AR  24175.91028349  .00001127  00000-0  88878-4 0  9991,2 53171  53.2191  54.1367 0001621 106.1612 253.9558 15.08841497107601,6917.876,95.437,540.862,538.619,0.0
53171.0,STARLINK-4052,PAYLOAD,2024-06-24 01:01:34,15.08843911,0.0001382,53.218,53.5413,91.0674,269.0476,0.00010924,1.451e-05,0.0,0 STARLINK-4052,1 53171U 22083AR  24176.04276188  .00001451  00000-0  10924-3 0  9998,2 53171  53.2180  53.5413 0001382  91.0674 269.0476 15.08843911108261,6917.868,95.437,540.689,538.777,0.0
53171.0,STARLINK-4052,PAYLOAD,2024-06-24 20:06:12,15.08838728,0.0001471,53.2182,49.9737,85.8459,274.2702,-1.8392e-05,-5.81e-06,0.0,0 STARLINK-4052,1 53171U 22083AR  24176.83764989 -.00000581  00000-0 -18392-4 0  9999,2 53171  53.2182  49.9737 0001471  85.8459 274.2702 15.08838728108385,6917.884,95.438,540.767,538.732,0.0
53171.0,STARLINK-4052,PAYLOAD,2024-06-24 21:41:36,15.08839913,0.0001507,53.2183,49.6765,84.323,275.7934,-1.2222e-05,-4.82e-06,0.0,0 STARLINK-4052,1 53171U 22083AR  24176.90388901 -.00000482  00000-0 -12222-4 0  9999,2 53171  53.2183  49.6765 0001507  84.3230 275.7934 15.08839913107755,6917.881,95.438,540.788,538.703,0.0
53171.0,STARLINK-4052,PAYLOAD,2024-06-24 23:16:59,15.08807424,0.0001808,53.2193,49.3805,76.7473,283.3721,0.00048187,7.382e-05,0.0,0 STARLINK-4052,1 53171U 22083AR  24176.97013667  .00007382  00000-0  48187-3 0  9992,2 53171  53.2193  49.3805 0001808  76.7473 283.3721 15.08807424108400,6917.98,95.44,541.096,538.594,0.0
53171.0,STARLINK-4052,PAYLOAD,2024-06-25 19:57:00,15.08832132,0.0001683,53.2193,45.5144,76.089,284.0289,-3.4115e-05,-8.31e-06,0.0,0 STARLINK-4052,1 53171U 22083AR  24177.83125825 -.00000831  00000-0 -34115-4 0  9999,2 53171  53.2193  45.5144 0001683  76.0890 284.0289 15.08832132108536,6917.904,95.438,540.934,538.605,0.0
53171.0,STARLINK-4052,PAYLOAD,2024-06-25 21:32:23,15.08832857,0.0001664,53.2194,45.2172,76.9885,283.1293,-2.7106e-05,-7.19e-06,0.0,0 STARLINK-4052,1 53171U 22083AR  24177.89749779 -.00000719  00000-0 -27106-4 0  9992,2 53171  53.2194  45.2172 0001664  76.9885 283.1293 15.08832857107906,6917.902,95.438,540.918,538.616,0.0
53171.0,STARLINK-4052,PAYLOAD,2024-06-25 23:07:46,15.08835504,0.00016,53.2193,44.9192,81.993,278.1244,-1.3025e-05,-4.95e-06,0.0,0 STARLINK-4052,1 53171U 22083AR  24177.96373544 -.00000495  00000-0 -13025-4 0  9999,2 53171  53.2193  44.9192 0001600  81.9930 278.1244 15.08835504107913,6917.894,95.438,540.866,538.652,0.0
53171.0,STARLINK-4052,PAYLOAD,2024-06-27 19:38:32,15.08843826,0.0001051,53.2179,36.5942,97.1821,262.9291,8.8028e-06,-1.48e-06,0.0,0 STARLINK-4052,1 53171U 22083AR  24179.81843134 -.00000148  00000-0  88028-5 0  9992,2 53171  53.2179  36.5942 0001051  97.1821 262.9291 15.08843826108836,6917.869,95.437,540.461,539.007,0.0
53171.0,STARLINK-4052,PAYLOAD,2024-06-27 21:13:56,15.08834896,9.73e-05,53.2167,36.2971,81.7131,278.3971,-3.7686e-05,-8.87e-06,0.0,0 STARLINK-4052,1 53171U 22083AR  24179.88467595 -.00000887  00000-0 -37686-4 0  9996,2 53171  53.2167  36.2971 0000973  81.7131 278.3971 15.08834896108201,6917.896,95.438,540.434,539.088,0.0
53171.0,STARLINK-4052,PAYLOAD,2024-06-28 21:04:41,15.08835479,0.0001167,53.2174,31.8352,102.0348,258.0775,0.00023624,3.473e-05,0.0,0 STARLINK-4052,1 53171U 22083AR  24180.87826115  .00003473  00000-0  23624-3 0  9992,2 53171  53.2174  31.8352 0001167 102.0348 258.0775 15.08835479108997,6917.894,95.438,540.567,538.952,0.0
53171.0,STARLINK-4052,PAYLOAD,2024-06-29 12:58:35,15.08821284,0.0001478,53.2185,28.8704,106.5635,253.552,7.8972e-05,9.69e-06,0.0,0 STARLINK-4052,1 53171U 22083AR  24181.54068377  .00000969  00000-0  78972-4 0  9999,2 53171  53.2185  28.8704 0001478 106.5635 253.5520 15.08821284109098,6917.938,95.439,540.825,538.78,0.0
53171.0,STARLINK-4052,PAYLOAD,2024-06-29 14:33:59,15.08801983,0.0001233,53.2175,28.5651,82.7998,277.3134,-8.1482e-05,-1.583e-05,0.0,0 STARLINK-4052,1 53171U 22083AR  24181.60694230 -.00001583  00000-0 -81482-4 0  9994,2 53171  53.2175  28.5651 0001233  82.7998 277.3134 15.08801983108460,6917.997,95.44,540.715,539.009,0.0
53171.0,STARLINK-4052,PAYLOAD,2024-06-29 19:20:09,15.0880559,0.0001241,53.2184,27.6736,92.4224,267.691,-4.8674e-05,-1.062e-05,0.0,0 STARLINK-4052,1 53171U 22083AR  24181.80566327 -.00001062  00000-0 -48674-4 0  9999,2 53171  53.2184  27.6736 0001241  92.4224 267.6910 15.08805590109130,6917.986,95.44,540.709,538.992,0.0
53171.0,STARLINK-4052,PAYLOAD,2024-06-29 20:55:32,15.08809198,0.0001187,53.2167,27.3743,63.5928,296.5186,1.3326e-06,-2.67e-06,0.0,0 STARLINK-4052,1 53171U 22083AR  24181.87190212 -.00000267  00000-0  13326-5 0  9994,2 53171  53.2167  27.3743 0001187  63.5928 296.5186 15.08809198108509,6917.975,95.44,540.661,539.018,0.0
53171.0,STARLINK-4052,PAYLOAD,2024-06-30 06:27:50,15.08820462,0.0001238,53.2186,25.5909,82.3736,277.7397,6.8187e-05,7.97e-06,0.0,0 STARLINK-4052,1 53171U 22083AR  24182.26933889  .00000797  00000-0  68187-4 0  9994,2 53171  53.2186  25.5909 0001238  82.3736 277.7397 15.08820462109207,6917.94,95.439,540.662,538.949,0.0
53171.0,STARLINK-4052,PAYLOAD,2024-06-30 14:24:45,15.08843513,0.0001211,53.2179,24.1043,108.4317,251.6807,-1.3576e-05,-5.04e-06,0.0,0 STARLINK-4052,1 53171U 22083AR  24182.60053187 -.00000504  00000-0 -13576-4 0  9996,2 53171  53.2179  24.1043 0001211 108.4317 251.6807 15.08843513108612,6917.87,95.437,540.572,538.897,0.0
53171.0,STARLINK-4052,PAYLOAD,2024-06-30 20:46:18,15.08848637,0.0001198,53.2176,22.9151,83.2824,276.8304,0.00027021,4.016e-05,0.0,0 STARLINK-4052,1 53171U 22083AR  24182.86548931  .00004016  00000-0  27021-3 0  9999,2 53171  53.2176  22.9151 0001198  83.2824 276.8304 15.08848637109290,6917.854,95.437,540.548,538.89,0.0
53171.0,STARLINK-4052,PAYLOAD,2024-06-30 22:21:41,15.08851536,0.0001187,53.2175,22.6178,83.8434,276.2693,0.00057298,8.846e-05,0.0,0 STARLINK-4052,1 53171U 22083AR  24182.93173172  .00008846  00000-0  57298-3 0  9992,2 53171  53.2175  22.6178 0001187  83.8434 276.2693 15.08851536108663,6917.845,95.437,540.531,538.889,0.0
53171.0,STARLINK-4052,PAYLOAD,2024-07-01 12:40:10,15.08845577,0.000146,53.2161,19.9411,79.7697,280.346,0.00035081,5.3e-05,0.0,0 STARLINK-4052,1 53171U 22083AR  24183.52789743  .00005300  00000-0  35081-3 0  9993,2 53171  53.2161  19.9411 0001460  79.7697 280.3460 15.08845577109393,6917.863,95.437,540.738,538.718,0.0
53171.0,STARLINK-4052,PAYLOAD,2024-07-01 22:12:28,15.08855409,0.000123,53.2172,18.1573,77.8595,282.2534,0.00052097,8.016e-05,0.0,0 STARLINK-4052,1 53171U 22083AR  24183.92533424  .00008016  00000-0  52097-3 0  9993,2 53171  53.2172  18.1573 0001230  77.8595 282.2534 15.08855409108810,6917.833,95.437,540.549,538.847,0.0
53171.0,STARLINK-4052,PAYLOAD,2024-07-02 12:30:57,15.08840776,0.0001069,53.2153,15.4811,94.3989,265.7126,0.00012683,1.731e-05,0.0,0 STARLINK-4052,1 53171U 22083AR  24184.52149456  .00001731  00000-0  12683-3 0  9992,2 53171  53.2153  15.4811 0001069  94.3989 265.7126 15.08840776109540,6917.878,95.438,540.483,539.003,0.0
53171.0,STARLINK-4052,PAYLOAD,2024-07-02 20:27:52,15.08848203,0.0001037,53.2165,13.9934,91.0012,269.1099,0.00013273,1.826e-05,0.0,0 STARLINK-4052,1 53171U 22083AR  24184.85269243  .00001826  00000-0  13273-3 0  9996,2 53171  53.2165  13.9934 0001037  91.0012 269.1099 15.08848203108952,6917.855,95.437,540.438,539.003,0.0
53171.0,STARLINK-4052,PAYLOAD,2024-07-03 18:43:16,15.08838455,0.0001051,53.2166,9.8314,90.501,269.6103,4.9418e-05,4.99e-06,0.0,0 STARLINK-4052,1 53171U 22083AR  24185.78005784  .00000499  00000-0  49418-4 0  9993,2 53171  53.2166   9.8314 0001051  90.5010 269.6103 15.08838455109733,6917.885,95.438,540.477,539.023,0.0
53171.0,STARLINK-4052,PAYLOAD,2024-07-04 12:12:31,15.08843793,0.0001536,53.2172,6.5594,94.0388,266.0779,0.00022076,3.228e-05,0.0,0 STARLINK-4052,1 53171U 22083AR  24186.50869671  .00003228  00000-0  22076-3 0  9990,2 53171  53.2172   6.5594 0001536  94.0388 266.0779 15.08843793109202,6917.869,95.437,540.796,538.671,0.0
53171.0,STARLINK-4052,PAYLOAD,2024-07-04 18:34:03,15.08842226,0.0001212,53.2165,5.3699,101.7101,258.4027,0.00016355,2.316e-05,0.0,0 STARLINK-4052,1 53171U 22083AR  24186.77365640  .00002316  00000-0  16355-3 0  9996,2 53171  53.2165   5.3699 0001212 101.7101 258.4027 15.08842226109242,6917.874,95.437,540.577,538.9,0.0
53171.0,STARLINK-4052,PAYLOAD,2024-07-05 12:03:18,15.08835423,0.0001075,53.2177,2.0985,96.6601,263.4514,0.00016028,2.264e-05,0.0,0 STARLINK-4052,1 53171U 22083AR  24187.50230224  .00002264  00000-0  16028-3 0  9996,2 53171  53.2177   2.0985 0001075  96.6601 263.4514 15.08835423109991,6917.894,95.438,540.503,539.016,0.0
53171.0,STARLINK-4052,PAYLOAD,2024-07-05 18:24:51,15.0883833,0.000107,53.2168,0.9119,81.3518,278.7595,0.00014191,1.971e-05,0.0,0 STARLINK-4052,1 53171U 22083AR  24187.76726163  .00001971  00000-0  14191-3 0  9999,2 53171  53.2168   0.9119 0001070  81.3518 278.7595 15.08838330109392,6917.885,95.438,540.491,539.01,0.0
